[{"OBJECT_NAME":"STARLINK-4622","OBJECT_ID":"2022-105A","EPOCH":"2026-03-09T15:28:45.630912","MEAN_MOTION":15.01261325,"ECCENTRICITY":9.71e-5,"INCLINATION":97.6028,"RA_OF_ASC_NODE":310.1571,"ARG_OF_PERICENTER":127.6572,"MEAN_ANOMALY":232.4741,"EPHEMERIS_TYPE":0,"CLASSIFICATION_TYPE":"U","NORAD_CAT_ID":53648,"ELEMENT_SET_NO":999,"REV_AT_EPOCH":19323,"BSTAR":-2.9421e-5,"MEAN_MOTION_DOT":-4.36e-6,"MEAN_MOTION_DDOT":0},{"OBJECT_NAME":"FENGYUN 1C DEB","OBJECT_ID":"1999-025AKL","EPOCH":"2026-03-09T14:47:46.011264","MEAN_MOTION":14.88806868,"ECCENTRICITY":0.0088849,"INCLINATION":98.9015,"RA_OF_ASC_NODE":300.2677,"ARG_OF_PERICENTER":245.5096,"MEAN_ANOMALY":169.9787,"EPHEMERIS_TYPE":0,"CLASSIFICATION_TYPE":"U","NORAD_CAT_ID":30546,"ELEMENT_SET_NO":999,"REV_AT_EPOCH":1749,"BSTAR":0.00087367,"MEAN_MOTION_DOT":8.737e-5,"MEAN_MOTION_DDOT":0}]
